QIANFAN-25              
1 61558U 24185G   25300.95753850  .00000700  00000+0  41989-3 0  9997
2 61558  88.9775  83.3634 0010724  89.0864 271.1547 14.05843140 63070
QIANFAN-26              
1 61559U 24185H   25300.92274334  .00000426  00000+0  41377-3 0  9996
2 61559  88.9774  84.6892 0006921 138.1498 222.0198 13.77773656 62363
QIANFAN-27              
1 61560U 24185J   25300.89812434  .00000869  00000+0  34965-3 0  9999
2 61560  88.9771  82.3114 0010032  83.1918 277.0417 14.27244556 63620
QIANFAN-28              
1 61561U 24185K   25300.90191052  .00001450  00000+0  58023-3 0  9996
2 61561  88.9789  82.3104 0009193  83.3893 276.8348 14.27887779 63630
QIANFAN-29              
1 61562U 24185L   25300.89383907  .00000264  00000+0  39014-3 0  9998
2 61562  88.9749  86.0419 0010318 174.4189 185.7079 13.50987455 61609
QIANFAN-30              
1 61563U 24185M   25300.90812512  .00000226  00000+0  33658-3 0  9996
2 61563  88.9769  85.5481 0008243 157.4381 202.7133 13.49964058 61887
QIANFAN-31              
1 61564U 24185N   25300.92448528  .00000267  00000+0  35252-3 0  9998
2 61564  88.9754  85.4210 0007991 152.9760 207.1813 13.57938485 61946
QIANFAN-32              
1 61565U 24185P   25300.90189756  .00000226  00000+0  33236-3 0  9997
2 61565  88.9812  85.6690 0009255 185.2267 174.8788 13.50715372 61854
